<?xml version="1.0" encoding="UTF-8"?>
<!DOCTYPE osm SYSTEM "../DTD/Santiago.dtd">
<osm version="0.6" generator="CGImap 0.8.2 (19693 thorn-03.openstreetmap.org)" copyright="OpenStreetMap and contributors" attribution="http://www.openstreetmap.org/copyright" license="http://opendatacommons.org/licenses/odbl/1-0/">
	<relation id="1778978" visible="true" version="17" changeset="69860871" timestamp="2019-05-03T21:05:49Z" user="sanchi" uid="170106">
		<member type="way" ref="4346328" role="outer"/>
		<member type="way" ref="161172500" role="inner"/>
		<tag k="addr:city" v="Madrid"/>
		<tag k="building" v="stadium"/>
		<tag k="building:material" v="concrete"/>
		<tag k="capacity" v="85454"/>
		<tag k="leisure" v="stadium"/>
		<tag k="name" v="Estadio Santiago Bernabéu"/>
		<tag k="name:ar" v="ملعب سنتياغو بيرنابو"/>
		<tag k="name:ast" v="Estadiu Santiago Bernabeu"/>
		<tag k="name:en" v="Santiago Bernabéu Stadium"/>
		<tag k="name:es" v="Estadio Santiago Bernabéu"/>
		<tag k="name:he" v="אצטדיון סנטיאגו ברנבאו"/>
		<tag k="name:it" v="Stadio Santiago Bernabèu"/>
		<tag k="source" v="PNOA"/>
		<tag k="sport" v="soccer"/>
		<tag k="start_date" v="1947-12-14"/>
		<tag k="type" v="multipolygon"/>
		<tag k="wikidata" v="Q164027"/>
		<tag k="wikipedia" v="es:Estadio Santiago Bernabéu"/>
	</relation>
</osm>
